shell_maritime_sat_0_0
1 00000U 99999A   24001.00000000  .00000000  00000-0  00000-0 0  9990
2 00000  53.0000   0.0000 0000000   0.0000   0.0000 14.20000000
shell_maritime_sat_0_1
1 00001U 99999A   24001.00000000  .00000000  00000-0  00000-0 0  9990
2 00001  53.0000   0.0000 0000000   0.0000  60.0000 14.20000000
shell_maritime_sat_0_2
1 00002U 99999A   24001.00000000  .00000000  00000-0  00000-0 0  9990
2 00002  53.0000   0.0000 0000000   0.0000 120.0000 14.20000000
shell_maritime_sat_0_3
1 00003U 99999A   24001.00000000  .00000000  00000-0  00000-0 0  9990
2 00003  53.0000   0.0000 0000000   0.0000 180.0000 14.20000000
shell_maritime_sat_0_4
1 00004U 99999A   24001.00000000  .00000000  00000-0  00000-0 0  9990
2 00004  53.0000   0.0000 0000000   0.0000 240.0000 14.20000000
shell_maritime_sat_0_5
1 00005U 99999A   24001.00000000  .00000000  00000-0  00000-0 0  9990
2 00005  53.0000   0.0000 0000000   0.0000 300.0000 14.20000000
shell_maritime_sat_1_0
1 00006U 99999A   24001.00000000  .00000000  00000-0  00000-0 0  9990
2 00006  53.0000  36.0000 0000000   0.0000   0.0000 14.20000000
shell_maritime_sat_1_1
1 00007U 99999A   24001.00000000  .00000000  00000-0  00000-0 0  9990
2 00007  53.0000  36.0000 0000000   0.0000  60.0000 14.20000000
shell_maritime_sat_1_2
1 00008U 99999A   24001.00000000  .00000000  00000-0  00000-0 0  9990
2 00008  53.0000  36.0000 0000000   0.0000 120.0000 14.20000000
shell_maritime_sat_1_3
1 00009U 99999A   24001.00000000  .00000000  00000-0  00000-0 0  9990
2 00009  53.0000  36.0000 0000000   0.0000 180.0000 14.20000000
shell_maritime_sat_1_4
1 00010U 99999A   24001.00000000  .00000000  00000-0  00000-0 0  9990
2 00010  53.0000  36.0000 0000000   0.0000 240.0000 14.20000000
shell_maritime_sat_1_5
1 00011U 99999A   24001.00000000  .00000000  00000-0  00000-0 0  9990
2 00011  53.0000  36.0000 0000000   0.0000 300.0000 14.20000000
shell_maritime_sat_2_0
1 00012U 99999A   24001.00000000  .00000000  00000-0  00000-0 0  9990
2 00012  53.0000  72.0000 0000000   0.0000   0.0000 14.20000000
shell_maritime_sat_2_1
1 00013U 99999A   24001.00000000  .00000000  00000-0  00000-0 0  9990
2 00013  53.0000  72.0000 0000000   0.0000  60.0000 14.20000000
shell_maritime_sat_2_2
1 00014U 99999A   24001.00000000  .00000000  00000-0  00000-0 0  9990
2 00014  53.0000  72.0000 0000000   0.0000 120.0000 14.20000000
shell_maritime_sat_2_3
1 00015U 99999A   24001.00000000  .00000000  00000-0  00000-0 0  9990
2 00015  53.0000  72.0000 0000000   0.0000 180.0000 14.20000000
shell_maritime_sat_2_4
1 00016U 99999A   24001.00000000  .00000000  00000-0  00000-0 0  9990
2 00016  53.0000  72.0000 0000000   0.0000 240.0000 14.20000000
shell_maritime_sat_2_5
1 00017U 99999A   24001.00000000  .00000000  00000-0  00000-0 0  9990
2 00017  53.0000  72.0000 0000000   0.0000 300.0000 14.20000000
shell_maritime_sat_3_0
1 00018U 99999A   24001.00000000  .00000000  00000-0  00000-0 0  9990
2 00018  53.0000 108.0000 0000000   0.0000   0.0000 14.20000000
shell_maritime_sat_3_1
1 00019U 99999A   24001.00000000  .00000000  00000-0  00000-0 0  9990
2 00019  53.0000 108.0000 0000000   0.0000  60.0000 14.20000000
shell_maritime_sat_3_2
1 00020U 99999A   24001.00000000  .00000000  00000-0  00000-0 0  9990
2 00020  53.0000 108.0000 0000000   0.0000 120.0000 14.20000000
shell_maritime_sat_3_3
1 00021U 99999A   24001.00000000  .00000000  00000-0  00000-0 0  9990
2 00021  53.0000 108.0000 0000000   0.0000 180.0000 14.20000000
shell_maritime_sat_3_4
1 00022U 99999A   24001.00000000  .00000000  00000-0  00000-0 0  9990
2 00022  53.0000 108.0000 0000000   0.0000 240.0000 14.20000000
shell_maritime_sat_3_5
1 00023U 99999A   24001.00000000  .00000000  00000-0  00000-0 0  9990
2 00023  53.0000 108.0000 0000000   0.0000 300.0000 14.20000000
shell_maritime_sat_4_0
1 00024U 99999A   24001.00000000  .00000000  00000-0  00000-0 0  9990
2 00024  53.0000 144.0000 0000000   0.0000   0.0000 14.20000000
shell_maritime_sat_4_1
1 00025U 99999A   24001.00000000  .00000000  00000-0  00000-0 0  9990
2 00025  53.0000 144.0000 0000000   0.0000  60.0000 14.20000000
shell_maritime_sat_4_2
1 00026U 99999A   24001.00000000  .00000000  00000-0  00000-0 0  9990
2 00026  53.0000 144.0000 0000000   0.0000 120.0000 14.20000000
shell_maritime_sat_4_3
1 00027U 99999A   24001.00000000  .00000000  00000-0  00000-0 0  9990
2 00027  53.0000 144.0000 0000000   0.0000 180.0000 14.20000000
shell_maritime_sat_4_4
1 00028U 99999A   24001.00000000  .00000000  00000-0  00000-0 0  9990
2 00028  53.0000 144.0000 0000000   0.0000 240.0000 14.20000000
shell_maritime_sat_4_5
1 00029U 99999A   24001.00000000  .00000000  00000-0  00000-0 0  9990
2 00029  53.0000 144.0000 0000000   0.0000 300.0000 14.20000000
shell_maritime_sat_5_0
1 00030U 99999A   24001.00000000  .00000000  00000-0  00000-0 0  9990
2 00030  53.0000 180.0000 0000000   0.0000   0.0000 14.20000000
shell_maritime_sat_5_1
1 00031U 99999A   24001.00000000  .00000000  00000-0  00000-0 0  9990
2 00031  53.0000 180.0000 0000000   0.0000  60.0000 14.20000000
shell_maritime_sat_5_2
1 00032U 99999A   24001.00000000  .00000000  00000-0  00000-0 0  9990
2 00032  53.0000 180.0000 0000000   0.0000 120.0000 14.20000000
shell_maritime_sat_5_3
1 00033U 99999A   24001.00000000  .00000000  00000-0  00000-0 0  9990
2 00033  53.0000 180.0000 0000000   0.0000 180.0000 14.20000000
shell_maritime_sat_5_4
1 00034U 99999A   24001.00000000  .00000000  00000-0  00000-0 0  9990
2 00034  53.0000 180.0000 0000000   0.0000 240.0000 14.20000000
shell_maritime_sat_5_5
1 00035U 99999A   24001.00000000  .00000000  00000-0  00000-0 0  9990
2 00035  53.0000 180.0000 0000000   0.0000 300.0000 14.20000000
shell_maritime_sat_6_0
1 00036U 99999A   24001.00000000  .00000000  00000-0  00000-0 0  9990
2 00036  53.0000 216.0000 0000000   0.0000   0.0000 14.20000000
shell_maritime_sat_6_1
1 00037U 99999A   24001.00000000  .00000000  00000-0  00000-0 0  9990
2 00037  53.0000 216.0000 0000000   0.0000  60.0000 14.20000000
shell_maritime_sat_6_2
1 00038U 99999A   24001.00000000  .00000000  00000-0  00000-0 0  9990
2 00038  53.0000 216.0000 0000000   0.0000 120.0000 14.20000000
shell_maritime_sat_6_3
1 00039U 99999A   24001.00000000  .00000000  00000-0  00000-0 0  9990
2 00039  53.0000 216.0000 0000000   0.0000 180.0000 14.20000000
shell_maritime_sat_6_4
1 00040U 99999A   24001.00000000  .00000000  00000-0  00000-0 0  9990
2 00040  53.0000 216.0000 0000000   0.0000 240.0000 14.20000000
shell_maritime_sat_6_5
1 00041U 99999A   24001.00000000  .00000000  00000-0  00000-0 0  9990
2 00041  53.0000 216.0000 0000000   0.0000 300.0000 14.20000000
shell_maritime_sat_7_0
1 00042U 99999A   24001.00000000  .00000000  00000-0  00000-0 0  9990
2 00042  53.0000 252.0000 0000000   0.0000   0.0000 14.20000000
shell_maritime_sat_7_1
1 00043U 99999A   24001.00000000  .00000000  00000-0  00000-0 0  9990
2 00043  53.0000 252.0000 0000000   0.0000  60.0000 14.20000000
shell_maritime_sat_7_2
1 00044U 99999A   24001.00000000  .00000000  00000-0  00000-0 0  9990
2 00044  53.0000 252.0000 0000000   0.0000 120.0000 14.20000000
shell_maritime_sat_7_3
1 00045U 99999A   24001.00000000  .00000000  00000-0  00000-0 0  9990
2 00045  53.0000 252.0000 0000000   0.0000 180.0000 14.20000000
shell_maritime_sat_7_4
1 00046U 99999A   24001.00000000  .00000000  00000-0  00000-0 0  9990
2 00046  53.0000 252.0000 0000000   0.0000 240.0000 14.20000000
shell_maritime_sat_7_5
1 00047U 99999A   24001.00000000  .00000000  00000-0  00000-0 0  9990
2 00047  53.0000 252.0000 0000000   0.0000 300.0000 14.20000000
shell_maritime_sat_8_0
1 00048U 99999A   24001.00000000  .00000000  00000-0  00000-0 0  9990
2 00048  53.0000 288.0000 0000000   0.0000   0.0000 14.20000000
shell_maritime_sat_8_1
1 00049U 99999A   24001.00000000  .00000000  00000-0  00000-0 0  9990
2 00049  53.0000 288.0000 0000000   0.0000  60.0000 14.20000000
shell_maritime_sat_8_2
1 00050U 99999A   24001.00000000  .00000000  00000-0  00000-0 0  9990
2 00050  53.0000 288.0000 0000000   0.0000 120.0000 14.20000000
shell_maritime_sat_8_3
1 00051U 99999A   24001.00000000  .00000000  00000-0  00000-0 0  9990
2 00051  53.0000 288.0000 0000000   0.0000 180.0000 14.20000000
shell_maritime_sat_8_4
1 00052U 99999A   24001.00000000  .00000000  00000-0  00000-0 0  9990
2 00052  53.0000 288.0000 0000000   0.0000 240.0000 14.20000000
shell_maritime_sat_8_5
1 00053U 99999A   24001.00000000  .00000000  00000-0  00000-0 0  9990
2 00053  53.0000 288.0000 0000000   0.0000 300.0000 14.20000000
shell_maritime_sat_9_0
1 00054U 99999A   24001.00000000  .00000000  00000-0  00000-0 0  9990
2 00054  53.0000 324.0000 0000000   0.0000   0.0000 14.20000000
shell_maritime_sat_9_1
1 00055U 99999A   24001.00000000  .00000000  00000-0  00000-0 0  9990
2 00055  53.0000 324.0000 0000000   0.0000  60.0000 14.20000000
shell_maritime_sat_9_2
1 00056U 99999A   24001.00000000  .00000000  00000-0  00000-0 0  9990
2 00056  53.0000 324.0000 0000000   0.0000 120.0000 14.20000000
shell_maritime_sat_9_3
1 00057U 99999A   24001.00000000  .00000000  00000-0  00000-0 0  9990
2 00057  53.0000 324.0000 0000000   0.0000 180.0000 14.20000000
shell_maritime_sat_9_4
1 00058U 99999A   24001.00000000  .00000000  00000-0  00000-0 0  9990
2 00058  53.0000 324.0000 0000000   0.0000 240.0000 14.20000000
shell_maritime_sat_9_5
1 00059U 99999A   24001.00000000  .00000000  00000-0  00000-0 0  9990
2 00059  53.0000 324.0000 0000000   0.0000 300.0000 14.20000000
