shell_uav_sat_0_0
1 00000U 99999A   24001.00000000  .00000000  00000-0  00000-0 0  9990
2 00000  53.0000   0.0000 0000000   0.0000   0.0000 14.20000000
shell_uav_sat_0_1
1 00001U 99999A   24001.00000000  .00000000  00000-0  00000-0 0  9990
2 00001  53.0000   0.0000 0000000   0.0000  90.0000 14.20000000
shell_uav_sat_0_2
1 00002U 99999A   24001.00000000  .00000000  00000-0  00000-0 0  9990
2 00002  53.0000   0.0000 0000000   0.0000 180.0000 14.20000000
shell_uav_sat_0_3
1 00003U 99999A   24001.00000000  .00000000  00000-0  00000-0 0  9990
2 00003  53.0000   0.0000 0000000   0.0000 270.0000 14.20000000
shell_uav_sat_1_0
1 00004U 99999A   24001.00000000  .00000000  00000-0  00000-0 0  9990
2 00004  53.0000  45.0000 0000000   0.0000   0.0000 14.20000000
shell_uav_sat_1_1
1 00005U 99999A   24001.00000000  .00000000  00000-0  00000-0 0  9990
2 00005  53.0000  45.0000 0000000   0.0000  90.0000 14.20000000
shell_uav_sat_1_2
1 00006U 99999A   24001.00000000  .00000000  00000-0  00000-0 0  9990
2 00006  53.0000  45.0000 0000000   0.0000 180.0000 14.20000000
shell_uav_sat_1_3
1 00007U 99999A   24001.00000000  .00000000  00000-0  00000-0 0  9990
2 00007  53.0000  45.0000 0000000   0.0000 270.0000 14.20000000
shell_uav_sat_2_0
1 00008U 99999A   24001.00000000  .00000000  00000-0  00000-0 0  9990
2 00008  53.0000  90.0000 0000000   0.0000   0.0000 14.20000000
shell_uav_sat_2_1
1 00009U 99999A   24001.00000000  .00000000  00000-0  00000-0 0  9990
2 00009  53.0000  90.0000 0000000   0.0000  90.0000 14.20000000
shell_uav_sat_2_2
1 00010U 99999A   24001.00000000  .00000000  00000-0  00000-0 0  9990
2 00010  53.0000  90.0000 0000000   0.0000 180.0000 14.20000000
shell_uav_sat_2_3
1 00011U 99999A   24001.00000000  .00000000  00000-0  00000-0 0  9990
2 00011  53.0000  90.0000 0000000   0.0000 270.0000 14.20000000
shell_uav_sat_3_0
1 00012U 99999A   24001.00000000  .00000000  00000-0  00000-0 0  9990
2 00012  53.0000 135.0000 0000000   0.0000   0.0000 14.20000000
shell_uav_sat_3_1
1 00013U 99999A   24001.00000000  .00000000  00000-0  00000-0 0  9990
2 00013  53.0000 135.0000 0000000   0.0000  90.0000 14.20000000
shell_uav_sat_3_2
1 00014U 99999A   24001.00000000  .00000000  00000-0  00000-0 0  9990
2 00014  53.0000 135.0000 0000000   0.0000 180.0000 14.20000000
shell_uav_sat_3_3
1 00015U 99999A   24001.00000000  .00000000  00000-0  00000-0 0  9990
2 00015  53.0000 135.0000 0000000   0.0000 270.0000 14.20000000
shell_uav_sat_4_0
1 00016U 99999A   24001.00000000  .00000000  00000-0  00000-0 0  9990
2 00016  53.0000 180.0000 0000000   0.0000   0.0000 14.20000000
shell_uav_sat_4_1
1 00017U 99999A   24001.00000000  .00000000  00000-0  00000-0 0  9990
2 00017  53.0000 180.0000 0000000   0.0000  90.0000 14.20000000
shell_uav_sat_4_2
1 00018U 99999A   24001.00000000  .00000000  00000-0  00000-0 0  9990
2 00018  53.0000 180.0000 0000000   0.0000 180.0000 14.20000000
shell_uav_sat_4_3
1 00019U 99999A   24001.00000000  .00000000  00000-0  00000-0 0  9990
2 00019  53.0000 180.0000 0000000   0.0000 270.0000 14.20000000
shell_uav_sat_5_0
1 00020U 99999A   24001.00000000  .00000000  00000-0  00000-0 0  9990
2 00020  53.0000 225.0000 0000000   0.0000   0.0000 14.20000000
shell_uav_sat_5_1
1 00021U 99999A   24001.00000000  .00000000  00000-0  00000-0 0  9990
2 00021  53.0000 225.0000 0000000   0.0000  90.0000 14.20000000
shell_uav_sat_5_2
1 00022U 99999A   24001.00000000  .00000000  00000-0  00000-0 0  9990
2 00022  53.0000 225.0000 0000000   0.0000 180.0000 14.20000000
shell_uav_sat_5_3
1 00023U 99999A   24001.00000000  .00000000  00000-0  00000-0 0  9990
2 00023  53.0000 225.0000 0000000   0.0000 270.0000 14.20000000
shell_uav_sat_6_0
1 00024U 99999A   24001.00000000  .00000000  00000-0  00000-0 0  9990
2 00024  53.0000 270.0000 0000000   0.0000   0.0000 14.20000000
shell_uav_sat_6_1
1 00025U 99999A   24001.00000000  .00000000  00000-0  00000-0 0  9990
2 00025  53.0000 270.0000 0000000   0.0000  90.0000 14.20000000
shell_uav_sat_6_2
1 00026U 99999A   24001.00000000  .00000000  00000-0  00000-0 0  9990
2 00026  53.0000 270.0000 0000000   0.0000 180.0000 14.20000000
shell_uav_sat_6_3
1 00027U 99999A   24001.00000000  .00000000  00000-0  00000-0 0  9990
2 00027  53.0000 270.0000 0000000   0.0000 270.0000 14.20000000
shell_uav_sat_7_0
1 00028U 99999A   24001.00000000  .00000000  00000-0  00000-0 0  9990
2 00028  53.0000 315.0000 0000000   0.0000   0.0000 14.20000000
shell_uav_sat_7_1
1 00029U 99999A   24001.00000000  .00000000  00000-0  00000-0 0  9990
2 00029  53.0000 315.0000 0000000   0.0000  90.0000 14.20000000
shell_uav_sat_7_2
1 00030U 99999A   24001.00000000  .00000000  00000-0  00000-0 0  9990
2 00030  53.0000 315.0000 0000000   0.0000 180.0000 14.20000000
shell_uav_sat_7_3
1 00031U 99999A   24001.00000000  .00000000  00000-0  00000-0 0  9990
2 00031  53.0000 315.0000 0000000   0.0000 270.0000 14.20000000
